GSAT-29                 
1 43698U 18089A   26199.56201207  .00000078  00000+0  00000+0 0  9999
2 43698   0.0377 252.9796 0003125 206.2680  94.5059  1.00268527 28108
ES'HAIL 2               
1 43700U 18090A   26199.48476215  .00000137  00000+0  00000+0 0  9995
2 43700   0.0159  76.3340 0002345  81.6613 338.5852  1.00272876 27997
GEO-KOMPSAT-2A          
1 43823U 18100A   26199.50515847 -.00000351  00000+0  00000+0 0  9990
2 43823   0.0305 159.2361 0002328 296.9491 150.2314  1.00273044 27941
GSAT-11                 
1 43824U 18100B   26199.56574416 -.00000084  00000+0  00000+0 0  9997
2 43824   0.0464 243.0640 0007798 215.2490 115.7197  1.00271542 27798
GSAT-7A                 
1 43864U 18105A   26199.49221552  .00000019  00000+0  00000+0 0  9995
2 43864   0.0929  91.2690 0001804  20.6593  64.3074  1.00272268 27766
COSMOS 2533             
1 43867U 18107A   26198.82581317 -.00000046  00000+0  00000+0 0  9995
2 43867   0.0367 115.1601 0000345 128.5769  59.1725  1.00266380 27757
TJS-3                   
1 43874U 18110A   26199.77359948 -.00000224  00000+0  00000+0 0  9993
2 43874   2.6244  80.1123 0002635  86.7640 196.4115  1.00271366 27730
ZHONGXING-2D            
1 43920U 19001A   26199.57677652  .00000000  00000+0  00000+0 0  9999
2 43920   0.0162 232.6624 0000557 120.7151 280.6598  1.00272935 54396
HELLAS-SAT 4 & SGS-1    
1 44034U 19007A   26199.55880539  .00000145  00000+0  00000+0 0  9990
2 44034   0.0661 125.2233 0005685  23.2728  28.0363  1.00272344 27684
GSAT-31                 
1 44035U 19007B   26199.56053874  .00000118  00000+0  00000+0 0  9996
2 44035   0.0232 100.9506 0000790 119.7240 325.3484  1.00272727 27282
NUSANTARA SATU          
1 44048U 19009A   26199.55391909 -.00000242  00000+0  00000+0 0  9994
2 44048   0.0306 119.0117 0004671   9.4850 153.2706  1.00270984 27087
ZHONGXING-6C            
1 44067U 19012A   26199.57686318 -.00000342  00000+0  00000+0 0  9993
2 44067   0.0543  64.9551 0014904 349.4700 220.0656  1.00273485 27055
WGS 10 (USA 291)        
1 44071U 19014A   26199.42031800  .00000039  00000+0  00000+0 0  9996
2 44071   0.0151  71.7547 0000057 282.0445 154.0309  1.00271912 26938
TIANLIAN 2-01           
1 44076U 19017A   26199.56626416 -.00000114  00000+0  00000+0 0  9997
2 44076   0.6191  83.0580 0001587  76.8161  57.3557  1.00271133 26967
ARABSAT-6A              
1 44186U 19021A   26199.48580216  .00000146  00000+0  00000+0 0  9996
2 44186   0.0461  17.5759 0001940 239.9781 244.1387  1.00275020 26478
BEIDOU-3 IGSO-1         
1 44204U 19023A   26197.32034861 -.00000209  00000+0  00000+0 0  9991
2 44204  58.7368  37.3490 0025911 224.0979 267.2124  1.00282972  7507
BEIDOU-2 G8             
1 44231U 19027A   26199.65478534 -.00000255  00000+0  00000+0 0  9993
2 44231   1.7363  74.5122 0009662 282.3900 319.7949  1.00270705 26398
YAMAL 601               
1 44307U 19031A   26198.99049794  .00000111  00000+0  00000+0 0  9990
2 44307   0.0159  75.3422 0002406  35.3471 230.6896  1.00272936 26230
AT&T T-16               
1 44333U 19034A   26199.46850486 -.00000123  00000+0  00000+0 0  9997
2 44333   0.0135  75.8268 0000707 286.9970   1.2519  1.00274498 25942
EUTELSAT 7C             
1 44334U 19034B   26199.26729441  .00000040  00000+0  00000+0 0  9999
2 44334   0.0771 179.8913 0003301 282.0063 297.4062  1.00270345  7145
BEIDOU-3 IGSO-2         
1 44337U 19035A   26198.79038544 -.00000127  00000+0  00000+0 0  9994
2 44337  55.2514 158.5934 0039283 216.3777 323.5324  1.00256724 25970
EDRS-C                  
1 44475U 19049A   26199.55391909 -.00000269  00000+0  00000+0 0  9991
2 44475   0.0131 123.4843 0001007   9.5567 145.2184  1.00271087 25521
INTELSAT 39 (IS-39)     
1 44476U 19049B   26199.42075133  .00000026  00000+0  00000+0 0  9996
2 44476   0.0160  58.7592 0000903 296.7568 154.1129  1.00271488 25444
AMOS-17                 
1 44479U 19050A   26199.55438537  .00000103  00000+0  00000+0 0  9992
2 44479   0.0174 358.4035 0001588 128.9330  25.6248  1.00275273 25504
AEHF-5 (USA 292)        
1 44481U 19051A   26199.56929750 -.00000264  00000+0  00000+0 0  9998
2 44481   1.4282 338.6984 0064857 357.4300 258.2683  1.00273092 25570
EUTELSAT 5 WEST B       
1 44624U 19067A   26199.33619751 -.00000050  00000+0  00000+0 0  9999
2 44624   0.0791 319.6642 0003077 157.7589 294.7375  1.00271024 24740
TJS-4                   
1 44637U 19070A   26199.67400272 -.00000177  00000+0  00000+0 0  9990
2 44637   0.1009 260.1144 0000281  35.5890 326.9750  1.00273770 24853
TIBA-1                  
1 44800U 19080A   26199.48666883  .00000148  00000+0  00000+0 0  9991
2 44800   0.0554  24.1999 0002038 103.0586  19.7028  1.00272887 24370
INMARSAT GX5            
1 44801U 19080B   26199.55325870  .00000067  00000+0  00000+0 0  9998
2 44801   0.0348  12.7887 0002123 115.3178  18.4293  1.00269769  7106
JCSAT-18 (KACIFIC 1)    
1 44868U 19091A   26199.55947677  .00000000  00000+0  00000+0 0  9995
2 44868   0.0088 256.0760 0000324 313.5196  78.1563  1.00266948 24328
ELEKTRO-L 3             
1 44903U 19095A   26198.99578463 -.00000105  00000+0  00000+0 0  9996
2 44903   0.3344  82.3228 0001407  20.0447 267.9036  1.00271518 24015
