OBJECT_NAME,OBJECT_ID,EPOCH,MEAN_MOTION,ECCENTRICITY,INCLINATION,RA_OF_ASC_NODE,ARG_OF_PERICENTER,MEAN_ANOMALY,EPHEMERIS_TYPE,CLASSIFICATION_TYPE,NORAD_CAT_ID,ELEMENT_SET_NO,REV_AT_EPOCH,BSTAR,MEAN_MOTION_DOT,MEAN_MOTION_DDOT
GSAT-29,2018-089A,2026-07-18T13:29:17.842848,1.00268527,.00031257,0.0377,252.9796,206.2680,94.5059,0,U,43698,999,2810,0,.78E-6,0
ES'HAIL 2,2018-090A,2026-07-18T11:38:03.449760,1.00272876,.00023457,0.0159,76.3340,81.6613,338.5852,0,U,43700,999,2799,0,.137E-5,0
GEO-KOMPSAT-2A,2018-100A,2026-07-18T12:07:25.691808,1.00273044,.00023281,0.0305,159.2361,296.9491,150.2314,0,U,43823,999,2794,0,-.351E-5,0
GSAT-11,2018-100B,2026-07-18T13:34:40.295424,1.00271542,.00077989,0.0464,243.0640,215.2490,115.7197,0,U,43824,999,2779,0,-.84E-6,0
GSAT-7A,2018-105A,2026-07-18T11:48:47.420928,1.00272268,.00018049,0.0929,91.2690,20.6593,64.3074,0,U,43864,999,2776,0,.19E-6,0
COSMOS 2533,2018-107A,2026-07-17T19:49:10.257888,1.00266380,.00003459,0.0367,115.1601,128.5769,59.1725,0,U,43867,999,2775,0,-.46E-6,0
TJS-3,2018-110A,2026-07-18T18:33:58.995072,1.00271366,.0002635,2.6244,80.1123,86.7640,196.4115,0,U,43874,999,2773,0,-.224E-5,0
ZHONGXING-2D,2019-001A,2026-07-18T13:50:33.491328,1.00272935,.00005575,0.0162,232.6624,120.7151,280.6598,0,U,43920,999,5439,0,0,0
HELLAS-SAT 4 & SGS-1,2019-007A,2026-07-18T13:24:40.785696,1.00272344,.00056859,0.0661,125.2233,23.2728,28.0363,0,U,44034,999,2768,0,.145E-5,0
GSAT-31,2019-007B,2026-07-18T13:27:10.547136,1.00272727,.00007903,0.0232,100.9506,119.7240,325.3484,0,U,44035,999,2728,0,.118E-5,0
NUSANTARA SATU,2019-009A,2026-07-18T13:17:38.609376,1.00270984,.00046717,0.0306,119.0117,9.4850,153.2706,0,U,44048,999,2708,0,-.242E-5,0
ZHONGXING-6C,2019-012A,2026-07-18T13:50:40.978752,1.00273485,.00149044,0.0543,64.9551,349.4700,220.0656,0,U,44067,999,2705,0,-.342E-5,0
WGS 10 (USA 291),2019-014A,2026-07-18T10:05:15.475200,1.00271912,.00000576,0.0151,71.7547,282.0445,154.0309,0,U,44071,999,2693,0,.39E-6,0
TIANLIAN 2-01,2019-017A,2026-07-18T13:35:25.223424,1.00271133,.00015871,0.6191,83.0580,76.8161,57.3557,0,U,44076,999,2696,0,-.114E-5,0
ARABSAT-6A,2019-021A,2026-07-18T11:39:33.306624,1.00275020,.000194,0.0461,17.5759,239.9781,244.1387,0,U,44186,999,2647,0,.146E-5,0
BEIDOU-3 IGSO-1,2019-023A,2026-07-16T07:41:18.119904,1.00282972,.00259114,58.7368,37.3490,224.0979,267.2124,0,U,44204,999,750,0,-.209E-5,0
BEIDOU-2 G8,2019-027A,2026-07-18T15:42:53.453376,1.00270705,.00096623,1.7363,74.5122,282.3900,319.7949,0,U,44231,999,2639,0,-.255E-5,0
YAMAL 601,2019-031A,2026-07-17T23:46:19.022016,1.00272936,.00024062,0.0159,75.3422,35.3471,230.6896,0,U,44307,999,2623,0,.111E-5,0
AT&T T-16,2019-034A,2026-07-18T11:14:38.819904,1.00274498,.0000707,0.0135,75.8268,286.9970,1.2519,0,U,44333,999,2594,0,-.123E-5,0
EUTELSAT 7C,2019-034B,2026-07-18T06:24:54.237024,1.00270345,.00033016,0.0771,179.8913,282.0063,297.4062,0,U,44334,999,714,0,.4E-6,0
BEIDOU-3 IGSO-2,2019-035A,2026-07-17T18:58:09.302016,1.00256724,.00392839,55.2514,158.5934,216.3777,323.5324,0,U,44337,999,2597,0,-.127E-5,0
EDRS-C,2019-049A,2026-07-18T13:17:38.609376,1.00271087,.00010073,0.0131,123.4843,9.5567,145.2184,0,U,44475,999,2552,0,-.269E-5,0
INTELSAT 39 (IS-39),2019-049B,2026-07-18T10:05:52.914912,1.00271488,.00009038,0.0160,58.7592,296.7568,154.1129,0,U,44476,999,2544,0,.26E-6,0
AMOS-17,2019-050A,2026-07-18T13:18:18.895968,1.00275273,.00015888,0.0174,358.4035,128.9330,25.6248,0,U,44479,999,2550,0,.103E-5,0
AEHF-5 (USA 292),2019-051A,2026-07-18T13:39:47.304000,1.00273092,.00648574,1.4282,338.6984,357.4300,258.2683,0,U,44481,999,2557,0,-.264E-5,0
EUTELSAT 5 WEST B,2019-067A,2026-07-18T08:04:07.464864,1.00271024,.00030771,0.0791,319.6642,157.7589,294.7375,0,U,44624,999,2474,0,-.5E-6,0
TJS-4,2019-070A,2026-07-18T16:10:33.835008,1.00273770,.00002813,0.1009,260.1144,35.5890,326.9750,0,U,44637,999,2485,0,-.177E-5,0
TIBA-1,2019-080A,2026-07-18T11:40:48.186912,1.00272887,.00020381,0.0554,24.1999,103.0586,19.7028,0,U,44800,999,2437,0,.148E-5,0
INMARSAT GX5,2019-080B,2026-07-18T13:16:41.551680,1.00269769,.00021238,0.0348,12.7887,115.3178,18.4293,0,U,44801,999,710,0,.67E-6,0
JCSAT-18 (KACIFIC 1),2019-091A,2026-07-18T13:25:38.792928,1.00266948,.00003242,0.0088,256.0760,313.5196,78.1563,0,U,44868,999,2432,0,0,0
ELEKTRO-L 3,2019-095A,2026-07-17T23:53:55.792032,1.00271518,.00014072,0.3344,82.3228,20.0447,267.9036,0,U,44903,999,2401,0,-.105E-5,0
